start=new Date('2023-06-20T00:00:00.000Z').valueOf();
sats=[{"REF_FRAME":"TEME","SEMIMAJOR_AXIS":"6937.232","MEAN_MOTION":"15.02530828","MEAN_ANOMALY":"73.2181","OBJECT_TYPE":"PAYLOAD","RCS_SIZE":"LARGE","NORAD_CAT_ID":"55605","TLE_LINE2":"2 55605  43.0045 353.7355 0001607 286.8485  73.2181 15.02530828 19528","APOAPSIS":"560.212","SITE":"AFETR","LAUNCH_DATE":"2023-02-12","TLE_LINE1":"1 55605U 23020AN  23170.56178845  .00003631  00000-0  28380-3 0  9992","ECCENTRICITY":"0.00016070","CENTER_NAME":"EARTH","ELEMENT_SET_NO":"999","REV_AT_EPOCH":"1952","INCLINATION":"43.0045","EPOCH":"2023-06-19T13:28:58.522080","FILE":"3937509","MEAN_MOTION_DOT":"0.00003631","OBJECT_ID":"2023-020AN","BSTAR":"0.00028380000000","EPHEMERIS_TYPE":"0","GP_ID":"234320292","TIME_SYSTEM":"UTC","OBJECT_NAME":"STARLINK-5725","MEAN_ELEMENT_THEORY":"SGP4","COUNTRY_CODE":"US","PERIOD":"95.838","RA_OF_ASC_NODE":"353.7355","CLASSIFICATION_TYPE":"U","ARG_OF_PERICENTER":"286.8485","DECAY_DATE":null,"MEAN_MOTION_DDOT":"0.0000000000000","PERIAPSIS":"557.983"},{"EPHEMERIS_TYPE":"0","TIME_SYSTEM":"UTC","OBJECT_NAME":"STARLINK-5700","GP_ID":"234321041","BSTAR":"-0.00006183900000","MEAN_MOTION_DOT":"-0.00001039","OBJECT_ID":"2023-020AQ","INCLINATION":"43.0037","REV_AT_EPOCH":"1952","ELEMENT_SET_NO":"999","FILE":"3937509","EPOCH":"2023-06-19T13:20:59.183520","DECAY_DATE":null,"ARG_OF_PERICENTER":"284.1708","PERIAPSIS":"557.853","MEAN_MOTION_DDOT":"0.0000000000000","RA_OF_ASC_NODE":"353.6952","CLASSIFICATION_TYPE":"U","PERIOD":"95.837","COUNTRY_CODE":"US","MEAN_ELEMENT_THEORY":"SGP4","NORAD_CAT_ID":"55607","RCS_SIZE":"LARGE","MEAN_ANOMALY":"75.8944","OBJECT_TYPE":"PAYLOAD","MEAN_MOTION":"15.02549818","REF_FRAME":"TEME","SEMIMAJOR_AXIS":"6937.174","LAUNCH_DATE":"2023-02-12","TLE_LINE1":"1 55607U 23020AQ  23170.55624055 -.00001039  00000-0 -61839-4 0  9991","ECCENTRICITY":"0.00017090","CENTER_NAME":"EARTH","SITE":"AFETR","TLE_LINE2":"2 55607  43.0037 353.6952 0001709 284.1708  75.8944 15.02549818 19529","APOAPSIS":"560.225"},{"GP_ID":"234321794","OBJECT_NAME":"STARLINK-5726","TIME_SYSTEM":"UTC","EPHEMERIS_TYPE":"0","BSTAR":"0.00032134000000","OBJECT_ID":"2023-020AR","MEAN_MOTION_DOT":"0.00004140","FILE":"3937509","EPOCH":"2023-06-19T19:39:05.558976","ELEMENT_SET_NO":"999","REV_AT_EPOCH":"1956","INCLINATION":"43.0049","MEAN_MOTION_DDOT":"0.0000000000000","PERIAPSIS":"557.972","ARG_OF_PERICENTER":"287.3013","DECAY_DATE":null,"PERIOD":"95.838","CLASSIFICATION_TYPE":"U","RA_OF_ASC_NODE":"352.2242","COUNTRY_CODE":"US","MEAN_ELEMENT_THEORY":"SGP4","NORAD_CAT_ID":"55608","RCS_SIZE":"LARGE","OBJECT_TYPE":"PAYLOAD","MEAN_ANOMALY":"72.7657","MEAN_MOTION":"15.02541219","SEMIMAJOR_AXIS":"6937.200","REF_FRAME":"TEME","ECCENTRICITY":"0.00015760","CENTER_NAME":"EARTH","TLE_LINE1":"1 55608U 23020AR  23170.81881434  .00004140  00000-0  32134-3 0  9996","LAUNCH_DATE":"2023-02-12","SITE":"AFETR","APOAPSIS":"560.159","TLE_LINE2":"2 55608  43.0049 352.2242 0001576 287.3013  72.7657 15.02541219 19564"},{"NORAD_CAT_ID":"55609","RCS_SIZE":"LARGE","MEAN_ANOMALY":"90.1694","OBJECT_TYPE":"PAYLOAD","MEAN_MOTION":"15.02528097","SEMIMAJOR_AXIS":"6937.241","REF_FRAME":"TEME","ECCENTRICITY":"0.00016030","CENTER_NAME":"EARTH","LAUNCH_DATE":"2023-02-12","TLE_LINE1":"1 55609U 23020AS  23170.55735235  .00001352  00000-0  11518-3 0  9990","SITE":"AFETR","APOAPSIS":"560.218","TLE_LINE2":"2 55609  43.0051 353.7014 0001603 269.8965  90.1694 15.02528097 19523","OBJECT_NAME":"STARLINK-5719","TIME_SYSTEM":"UTC","GP_ID":"234322044","EPHEMERIS_TYPE":"0","BSTAR":"0.00011518000000","OBJECT_ID":"2023-020AS","MEAN_MOTION_DOT":"0.00001352","EPOCH":"2023-06-19T13:22:35.243040","FILE":"3937509","INCLINATION":"43.0051","REV_AT_EPOCH":"1952","ELEMENT_SET_NO":"999","PERIAPSIS":"557.994","MEAN_MOTION_DDOT":"0.0000000000000","DECAY_DATE":null,"ARG_OF_PERICENTER":"269.8965","CLASSIFICATION_TYPE":"U","RA_OF_ASC_NODE":"353.7014","PERIOD":"95.838","COUNTRY_CODE":"US","MEAN_ELEMENT_THEORY":"SGP4"},{"INCLINATION":"43.0051","ELEMENT_SET_NO":"999","REV_AT_EPOCH":"1956","EPOCH":"2023-06-19T19:27:54.337248","FILE":"3937509","MEAN_MOTION_DOT":"0.00004236","OBJECT_ID":"2023-020AT","BSTAR":"0.00032842000000","EPHEMERIS_TYPE":"0","OBJECT_NAME":"STARLINK-5722","TIME_SYSTEM":"UTC","GP_ID":"234320793","COUNTRY_CODE":"US","MEAN_ELEMENT_THEORY":"SGP4","RA_OF_ASC_NODE":"352.1699","CLASSIFICATION_TYPE":"U","PERIOD":"95.838","DECAY_DATE":null,"ARG_OF_PERICENTER":"286.2100","PERIAPSIS":"558.023","MEAN_MOTION_DDOT":"0.0000000000000","REF_FRAME":"TEME","SEMIMAJOR_AXIS":"6937.201","MEAN_MOTION":"15.02540910","MEAN_ANOMALY":"73.8577","OBJECT_TYPE":"PAYLOAD","RCS_SIZE":"LARGE","NORAD_CAT_ID":"55610","TLE_LINE2":"2 55610  43.0051 352.1699 0001504 286.2100  73.8577 15.02540910 19561","APOAPSIS":"560.110","SITE":"AFETR","LAUNCH_DATE":"2023-02-12","TLE_LINE1":"1 55610U 23020AT  23170.81104557  .00004236  00000-0  32842-3 0  9995","ECCENTRICITY":"0.00015040","CENTER_NAME":"EARTH"},{"NORAD_CAT_ID":"55611","RCS_SIZE":"LARGE","MEAN_ANOMALY":"71.9846","OBJECT_TYPE":"PAYLOAD","MEAN_MOTION":"15.02563879","SEMIMAJOR_AXIS":"6937.131","REF_FRAME":"TEME","ECCENTRICITY":"0.00017820","CENTER_NAME":"EARTH","TLE_LINE1":"1 55611U 23020AU  23170.81327218  .00013024  00000-0  97667-3 0  9998","LAUNCH_DATE":"2023-02-12","SITE":"AFETR","APOAPSIS":"560.232","TLE_LINE2":"2 55611  43.0039 352.1817 0001782 288.0802  71.9846 15.02563879 19564","GP_ID":"234320541","TIME_SYSTEM":"UTC","OBJECT_NAME":"STARLINK-5730","EPHEMERIS_TYPE":"0","BSTAR":"0.00097667000000","OBJECT_ID":"2023-020AU","MEAN_MOTION_DOT":"0.00013024","EPOCH":"2023-06-19T19:31:06.716352","FILE":"3937509","REV_AT_EPOCH":"1956","ELEMENT_SET_NO":"999","INCLINATION":"43.0039","MEAN_MOTION_DDOT":"0.0000000000000","PERIAPSIS":"557.760","ARG_OF_PERICENTER":"288.0802","DECAY_DATE":null,"PERIOD":"95.836","CLASSIFICATION_TYPE":"U","RA_OF_ASC_NODE":"352.1817","MEAN_ELEMENT_THEORY":"SGP4","COUNTRY_CODE":"US"},{"MEAN_MOTION_DDOT":"0.0000000000000","PERIAPSIS":"557.775","ARG_OF_PERICENTER":"283.9420","DECAY_DATE":null,"COUNTRY_CODE":"US","MEAN_ELEMENT_THEORY":"SGP4","PERIOD":"95.837","RA_OF_ASC_NODE":"352.1406","CLASSIFICATION_TYPE":"U","BSTAR":"0.00072597000000","GP_ID":"234321294","TIME_SYSTEM":"UTC","OBJECT_NAME":"STARLINK-5734","EPHEMERIS_TYPE":"0","EPOCH":"2023-06-19T19:23:07.346688","FILE":"3937509","REV_AT_EPOCH":"1956","ELEMENT_SET_NO":"999","INCLINATION":"43.0041","OBJECT_ID":"2023-020AV","MEAN_MOTION_DOT":"0.00009621","SITE":"AFETR","CENTER_NAME":"EARTH","ECCENTRICITY":"0.00017970","LAUNCH_DATE":"2023-02-12","TLE_LINE1":"1 55612U 23020AV  23170.80772392  .00009621  00000-0  72597-3 0  9998","APOAPSIS":"560.269","TLE_LINE2":"2 55612  43.0041 352.1406 0001797 283.9420  76.1223 15.02555309 19563","MEAN_ANOMALY":"76.1223","OBJECT_TYPE":"PAYLOAD","RCS_SIZE":"LARGE","NORAD_CAT_ID":"55612","REF_FRAME":"TEME","SEMIMAJOR_AXIS":"6937.157","MEAN_MOTION":"15.02555309"},{"SEMIMAJOR_AXIS":"6937.164","REF_FRAME":"TEME","MEAN_MOTION":"15.02553143","OBJECT_TYPE":"PAYLOAD","MEAN_ANOMALY":"74.6246","RCS_SIZE":"LARGE","NORAD_CAT_ID":"55613","APOAPSIS":"560.114","TLE_LINE2":"2 55613  43.0040 352.2117 0001565 285.4423  74.6246 15.02553143 19568","SITE":"AFETR","ECCENTRICITY":"0.00015650","CENTER_NAME":"EARTH","TLE_LINE1":"1 55613U 23020AW  23170.81660291  .00008894  00000-0  67233-3 0  9996","LAUNCH_DATE":"2023-02-12","EPOCH":"2023-06-19T19:35:54.491424","FILE":"3937509","REV_AT_EPOCH":"1956","ELEMENT_SET_NO":"999","INCLINATION":"43.0040","OBJECT_ID":"2023-020AW","MEAN_MOTION_DOT":"0.00008894","BSTAR":"0.00067233000000","GP_ID":"234321544","OBJECT_NAME":"STARLINK-5715","TIME_SYSTEM":"UTC","EPHEMERIS_TYPE":"0","COUNTRY_CODE":"US","MEAN_ELEMENT_THEORY":"SGP4","PERIOD":"95.837","RA_OF_ASC_NODE":"352.2117","CLASSIFICATION_TYPE":"U","MEAN_MOTION_DDOT":"0.0000000000000","PERIAPSIS":"557.943","ARG_OF_PERICENTER":"285.4423","DECAY_DATE":null},{"ECCENTRICITY":"0.00017200","CENTER_NAME":"EARTH","LAUNCH_DATE":"2023-02-12","TLE_LINE1":"1 55614U 23020AX  23170.74705405 -.00001110  00000-0 -67139-4 0  9998","SITE":"AFETR","APOAPSIS":"560.335","TLE_LINE2":"2 55614  43.0062 339.5041 0001720 264.0556  96.0090 15.02516547 19708","NORAD_CAT_ID":"55614","RCS_SIZE":"LARGE","OBJECT_TYPE":"PAYLOAD","MEAN_ANOMALY":"96.0090","MEAN_MOTION":"15.02516547","SEMIMAJOR_AXIS":"6937.276","REF_FRAME":"TEME","PERIAPSIS":"557.948","MEAN_MOTION_DDOT":"0.0000000000000","DECAY_DATE":null,"ARG_OF_PERICENTER":"264.0556","RA_OF_ASC_NODE":"339.5041","CLASSIFICATION_TYPE":"U","PERIOD":"95.839","COUNTRY_CODE":"US","MEAN_ELEMENT_THEORY":"SGP4","TIME_SYSTEM":"UTC","OBJECT_NAME":"STARLINK-5714","GP_ID":"234320293","EPHEMERIS_TYPE":"0","BSTAR":"-0.00006713900000","OBJECT_ID":"2023-020AX","MEAN_MOTION_DOT":"-0.00001110","EPOCH":"2023-06-19T17:55:45.469920","FILE":"3937509","INCLINATION":"43.0062","REV_AT_EPOCH":"1970","ELEMENT_SET_NO":"999"},{"COUNTRY_CODE":"US","MEAN_ELEMENT_THEORY":"SGP4","CLASSIFICATION_TYPE":"U","RA_OF_ASC_NODE":"352.1243","PERIOD":"95.838","DECAY_DATE":null,"ARG_OF_PERICENTER":"280.4399","PERIAPSIS":"557.958","MEAN_MOTION_DDOT":"0.0000000000000","INCLINATION":"43.0052","REV_AT_EPOCH":"1956","ELEMENT_SET_NO":"999","EPOCH":"2023-06-19T19:19:55.040160","FILE":"3937509","MEAN_MOTION_DOT":"0.00003364","OBJECT_ID":"2023-020AY","BSTAR":"0.00026400000000","EPHEMERIS_TYPE":"0","TIME_SYSTEM":"UTC","OBJECT_NAME":"STARLINK-5712","GP_ID":"234321042","TLE_LINE2":"2 55615  43.0052 352.1243 0001621 280.4399  79.6260 15.02535742 19568","APOAPSIS":"560.207","SITE":"AFETR","TLE_LINE1":"1 55615U 23020AY  23170.80549815  .00003364  00000-0  26400-3 0  9993","LAUNCH_DATE":"2023-02-12","ECCENTRICITY":"0.00016210","CENTER_NAME":"EARTH","REF_FRAME":"TEME","SEMIMAJOR_AXIS":"6937.217","MEAN_MOTION":"15.02535742","MEAN_ANOMALY":"79.6260","OBJECT_TYPE":"PAYLOAD","NORAD_CAT_ID":"55615","RCS_SIZE":"LARGE"}];
